{
  "type": "FeatureCollection",
  "features": [
    {
      "type": "Feature",
      "properties": {
        "norad_id": 31608,
        "name": "FENGYUN 1C DEB",
        "group": "fengyun-1c-debris",
        "lat": -35.52738692624813,
        "lon": -69.13020151248524,
        "alt_km": 699.6104339516451,
        "timestamp": "2025-12-24T03:53:29.930368+00:00",
        "meta_object_name": "FENGYUN 1C DEB",
        "meta_object_id": "1999-025BZN",
        "meta_epoch": "2025-12-17T14:09:29.850912",
        "meta_mean_motion": 14.85908283,
        "meta_eccentricity": 0.01457059,
        "meta_inclination": 98.3797,
        "meta_ra_of_asc_node": 109.9897,
        "meta_arg_of_pericenter": 22.0076,
        "meta_mean_anomaly": 338.7309,
        "meta_ephemeris_type": 0,
        "meta_classification_type": "U",
        "meta_norad_cat_id": 31608,
        "meta_element_set_no": 999,
        "meta_rev_at_epoch": 98705,
        "meta_bstar": 0.00045964647,
        "meta_mean_motion_dot": 4.79e-05,
        "meta_mean_motion_ddot": 0,
        "tle_line1": "1 31608U 99025BZN 25351.58992883  .00004790  00000+0  45965-3 0  9992",
        "tle_line2": "2 31608  98.3797 109.9897 0145705  22.0076 338.7309 14.85908283987055"
      },
      "geometry": {
        "type": "Point",
        "coordinates": [
          -69.13020151248524,
          -35.52738692624813
        ]
      }
    },
    {
      "type": "Feature",
      "properties": {
        "norad_id": 31609,
        "name": "FENGYUN 1C DEB",
        "group": "fengyun-1c-debris",
        "lat": 51.06719747685918,
        "lon": 15.481855943615097,
        "alt_km": 872.4966261594991,
        "timestamp": "2025-12-24T03:53:29.930379+00:00",
        "meta_object_name": "FENGYUN 1C DEB",
        "meta_object_id": "1999-025BZP",
        "meta_epoch": "2025-12-22T21:42:13.279104",
        "meta_mean_motion": 14.15844126,
        "meta_eccentricity": 0.0094714,
        "meta_inclination": 99.2139,
        "meta_ra_of_asc_node": 25.7728,
        "meta_arg_of_pericenter": 291.5289,
        "meta_mean_anomaly": 191.9396,
        "meta_ephemeris_type": 0,
        "meta_classification_type": "U",
        "meta_norad_cat_id": 31609,
        "meta_element_set_no": 999,
        "meta_rev_at_epoch": 66228,
        "meta_bstar": 0.002391,
        "meta_mean_motion_dot": 4.866e-05,
        "meta_mean_motion_ddot": 0,
        "tle_line1": "1 31609U 99025BZP 25356.90432036  .00004866  00000+0  23910-2 0  9992",
        "tle_line2": "2 31609  99.2139  25.7728 0094714 291.5289 191.9396 14.15844126662284"
      },
      "geometry": {
        "type": "Point",
        "coordinates": [
          15.481855943615097,
          51.06719747685918
        ]
      }
    },
    {
      "type": "Feature",
      "properties": {
        "norad_id": 31612,
        "name": "FENGYUN 1C DEB",
        "group": "fengyun-1c-debris",
        "lat": 9.958655262140487,
        "lon": 101.07203125411888,
        "alt_km": 345.0988465522896,
        "timestamp": "2025-12-24T03:53:29.930390+00:00",
        "meta_object_name": "FENGYUN 1C DEB",
        "meta_object_id": "1999-025BZS",
        "meta_epoch": "2025-12-23T13:27:58.666752",
        "meta_mean_motion": 15.76213055,
        "meta_eccentricity": 0.0029485,
        "meta_inclination": 100.335,
        "meta_ra_of_asc_node": 278.3417,
        "meta_arg_of_pericenter": 71.67,
        "meta_mean_anomaly": 288.7759,
        "meta_ephemeris_type": 0,
        "meta_classification_type": "U",
        "meta_norad_cat_id": 31612,
        "meta_element_set_no": 999,
        "meta_rev_at_epoch": 175,
        "meta_bstar": 0.0021763,
        "meta_mean_motion_dot": 0.00363536,
        "meta_mean_motion_ddot": 0,
        "tle_line1": "1 31612U 99025BZS 25357.56109568  .00363536  00000+0  21763-2 0  9996",
        "tle_line2": "2 31612 100.3350 278.3417 0029485  71.6700 288.7759 15.76213055  1752"
      },
      "geometry": {
        "type": "Point",
        "coordinates": [
          101.07203125411888,
          9.958655262140487
        ]
      }
    },
    {
      "type": "Feature",
      "properties": {
        "norad_id": 31613,
        "name": "FENGYUN 1C DEB",
        "group": "fengyun-1c-debris",
        "lat": 49.389328571471964,
        "lon": 173.75048492722132,
        "alt_km": 788.2129705136385,
        "timestamp": "2025-12-24T03:53:29.930400+00:00",
        "meta_object_name": "FENGYUN 1C DEB",
        "meta_object_id": "1999-025BZT",
        "meta_epoch": "2025-12-20T06:18:56.611008",
        "meta_mean_motion": 13.63462471,
        "meta_eccentricity": 0.03426757,
        "meta_inclination": 98.4235,
        "meta_ra_of_asc_node": 180.3179,
        "meta_arg_of_pericenter": 86.1054,
        "meta_mean_anomaly": 277.919,
        "meta_ephemeris_type": 0,
        "meta_classification_type": "U",
        "meta_norad_cat_id": 31613,
        "meta_element_set_no": 999,
        "meta_rev_at_epoch": 91864,
        "meta_bstar": 0.00096915007,
        "meta_mean_motion_dot": 1.104e-05,
        "meta_mean_motion_ddot": 0,
        "tle_line1": "1 31613U 99025BZT 25354.26315522  .00001104  00000+0  96915-3 0  9992",
        "tle_line2": "2 31613  98.4235 180.3179 0342675  86.1054 277.9190 13.63462471918647"
      },
      "geometry": {
        "type": "Point",
        "coordinates": [
          173.75048492722132,
          49.389328571471964
        ]
      }
    },
    {
      "type": "Feature",
      "properties": {
        "norad_id": 31614,
        "name": "FENGYUN 1C DEB",
        "group": "fengyun-1c-debris",
        "lat": -55.64739086308045,
        "lon": 72.28604351462575,
        "alt_km": 577.7454019193547,
        "timestamp": "2025-12-24T03:53:29.930416+00:00",
        "meta_object_name": "FENGYUN 1C DEB",
        "meta_object_id": "1999-025BZU",
        "meta_epoch": "2025-12-23T17:21:05.771808",
        "meta_mean_motion": 14.99252513,
        "meta_eccentricity": 0.0018183,
        "meta_inclination": 98.9726,
        "meta_ra_of_asc_node": 265.1466,
        "meta_arg_of_pericenter": 336.1404,
        "meta_mean_anomaly": 51.7298,
        "meta_ephemeris_type": 0,
        "meta_classification_type": "U",
        "meta_norad_cat_id": 31614,
        "meta_element_set_no": 999,
        "meta_rev_at_epoch": 96594,
        "meta_bstar": 0.0072377,
        "meta_mean_motion_dot": 0.00089587,
        "meta_mean_motion_ddot": 0,
        "tle_line1": "1 31614U 99025BZU 25357.72298347  .00089587  00000+0  72377-2 0  9998",
        "tle_line2": "2 31614  98.9726 265.1466 0018183 336.1404  51.7298 14.99252513965946"
      },
      "geometry": {
        "type": "Point",
        "coordinates": [
          72.28604351462575,
          -55.64739086308045
        ]
      }
    },
    {
      "type": "Feature",
      "properties": {
        "norad_id": 31615,
        "name": "FENGYUN 1C DEB",
        "group": "fengyun-1c-debris",
        "lat": 3.1467975211320165,
        "lon": 49.760483234349906,
        "alt_km": 753.3551097862328,
        "timestamp": "2025-12-24T03:53:29.930427+00:00",
        "meta_object_name": "FENGYUN 1C DEB",
        "meta_object_id": "1999-025BZV",
        "meta_epoch": "2025-12-21T08:57:52.598016",
        "meta_mean_motion": 14.35490387,
        "meta_eccentricity": 0.0166642,
        "meta_inclination": 99.1375,
        "meta_ra_of_asc_node": 47.3142,
        "meta_arg_of_pericenter": 291.3447,
        "meta_mean_anomaly": 67.0022,
        "meta_ephemeris_type": 0,
        "meta_classification_type": "U",
        "meta_norad_cat_id": 31615,
        "meta_element_set_no": 999,
        "meta_rev_at_epoch": 65402,
        "meta_bstar": 0.0026643,
        "meta_mean_motion_dot": 8.927e-05,
        "meta_mean_motion_ddot": 0,
        "tle_line1": "1 31615U 99025BZV 25355.37352544  .00008927  00000+0  26643-2 0  9992",
        "tle_line2": "2 31615  99.1375  47.3142 0166642 291.3447  67.0022 14.35490387654026"
      },
      "geometry": {
        "type": "Point",
        "coordinates": [
          49.760483234349906,
          3.1467975211320165
        ]
      }
    },
    {
      "type": "Feature",
      "properties": {
        "norad_id": 31618,
        "name": "FENGYUN 1C DEB",
        "group": "fengyun-1c-debris",
        "lat": -12.683280133786734,
        "lon": -40.26468871795384,
        "alt_km": 846.0029025454214,
        "timestamp": "2025-12-24T03:53:29.930437+00:00",
        "meta_object_name": "FENGYUN 1C DEB",
        "meta_object_id": "1999-025BZY",
        "meta_epoch": "2025-12-23T05:00:13.341600",
        "meta_mean_motion": 14.21035882,
        "meta_eccentricity": 0.0156931,
        "meta_inclination": 99.4438,
        "meta_ra_of_asc_node": 140.8629,
        "meta_arg_of_pericenter": 296.392,
        "meta_mean_anomaly": 62.1219,
        "meta_ephemeris_type": 0,
        "meta_classification_type": "U",
        "meta_norad_cat_id": 31618,
        "meta_element_set_no": 999,
        "meta_rev_at_epoch": 70413,
        "meta_bstar": 0.00031508967,
        "meta_mean_motion_dot": 7.22e-06,
        "meta_mean_motion_ddot": 0,
        "tle_line1": "1 31618U 99025BZY 25357.20848775  .00000722  00000+0  31509-3 0  9998",
        "tle_line2": "2 31618  99.4438 140.8629 0156931 296.3920  62.1219 14.21035882704134"
      },
      "geometry": {
        "type": "Point",
        "coordinates": [
          -40.26468871795384,
          -12.683280133786734
        ]
      }
    }
  ]
}